{"type":"FeatureCollection","features":[{"type":"Feature","properties":{"name":"Capitol Planning Region"},"geometry":{"type":"Polygon","coordinates":[[[-72.33423,41.6436],[-72.30364,41.65398],[-72.27867,41.67198],[-72.26842,41.67114],[-72.26812,41.67303],[-72.26702,41.6746],[-72.26747,41.67591],[-72.26614,41.67727],[-72.26739,41.67817],[-72.26786,41.68153],[-72.2696,41.68474],[-72.26939,41.68571],[-72.27475,41.69061],[-72.27404,41.6918],[-72.27431,41.69261],[-72.27332,41.69286],[-72.27012,41.69133],[-72.26921,41.69153],[-72.26819,41.69277],[-72.26758,41.69137],[-72.2665,41.69067],[-72.26525,41.69161],[-72.26394,41.69183],[-72.26352,41.69334],[-72.26235,41.6939],[-72.26128,41.69535],[-72.26168,41.69606],[-72.26088,41.69668],[-72.26073,41.69864],[-72.25842,41.69844],[-72.25772,41.69979],[-72.25537,41.70049],[-72.25384,41.70043],[-72.25201,41.69908],[-72.25017,41.69933],[-72.25144,41.70148],[-72.25125,41.70332],[-72.24725,41.70412],[-72.24598,41.70372],[-72.24519,41.70511],[-72.24438,41.70509],[-72.24402,41.70573],[-72.24423,41.70673],[-72.24721,41.70687],[-72.24781,41.70798],[-72.24759,41.70882],[-72.24657,41.70827],[-72.2457,41.71095],[-72.24462,41.71079],[-72.24466,41.71177],[-72.24329,41.71212],[-72.24372,41.71306],[-72.24497,41.71388],[-72.24401,41.71441],[-72.24344,41.71385],[-72.24286,41.71409],[-72.24266,41.71307],[-72.2401,41.7136],[-72.23956,41.71419],[-72.24281,41.71645],[-72.24425,41.71692],[-72.24528,41.72049],[-72.24709,41.72349],[-72.24952,41.72447],[-72.25201,41.72424],[-72.25299,41.72492],[-72.2532,41.7258],[-72.25198,41.72728],[-72.25264,41.7282],[-72.19813,41.72818],[-72.19774,41.72888],[-72.19916,41.72961],[-72.19852,41.73174],[-72.19771,41.73177],[-72.19682,41.73064],[-72.19497,41.72997],[-72.19244,41.73029],[-72.19096,41.73139],[-72.191,41.73258],[-72.19251,41.73453],[-72.19444,41.73494],[-72.19532,41.73606],[-72.19564,41.73961],[-72.19343,41.74371],[-72.18905,41.74711],[-72.18877,41.74841],[-72.18925,41.7504],[-72.18573,41.75191],[-72.18799,41.75374],[-72.18766,41.75518],[-72.18227,41.75621],[-72.17787,41.75537],[-72.17748,41.75387],[-72.17831,41.75309],[-72.17604,41.75144],[-72.17656,41.75072],[-72.17639,41.74998],[-72.17476,41.75016],[-72.17463,41.75101],[-72.17413,41.75118],[-72.17302,41.74948],[-72.17165,41.74847],[-72.16848,41.75223],[-72.16607,41.75196],[-72.16531,41.75033],[-72.16342,41.74974],[-72.15915,41.75074],[-72.15889,41.75144],[-72.15763,41.7518],[-72.15632,41.75349],[-72.15673,41.75379],[-72.1645,41.83491],[-72.21772,41.83518],[-72.2169,41.88446],[-72.21631,41.89282],[-72.21729,41.94324],[-72.21698,41.95816],[-72.2349,41.95758],[-72.22982,41.96756],[-72.21489,42.0001],[-72.20508,42.03107],[-72.33881,42.03216],[-72.46012,42.03436],[-72.53155,42.03458],[-72.57278,42.03022],[-72.58216,42.02474],[-72.60717,42.02515],[-72.60798,42.03108],[-72.64019,42.03205],[-72.67303,42.0352],[-72.69933,42.03696],[-72.75589,42.03635],[-72.75605,42.03494],[-72.7573,42.03338],[-72.75464,42.0326],[-72.75255,42.03125],[-72.75194,42.03013],[-72.75206,42.02903],[-72.75578,42.02473],[-72.75665,42.02293],[-72.75659,42.02188],[-72.75734,42.02098],[-72.75923,42.02108],[-72.75943,42.02216],[-72.76057,42.02265],[-72.76141,42.02271],[-72.76349,42.02118],[-72.76395,42.02192],[-72.76525,42.02237],[-72.76448,42.02087],[-72.76581,42.01957],[-72.76463,42.01995],[-72.76295,42.01968],[-72.76202,42.0177],[-72.76073,42.0171],[-72.76007,42.01732],[-72.76,42.01636],[-72.75895,42.01547],[-72.7597,42.01511],[-72.76062,42.01569],[-72.761,42.0147],[-72.76298,42.01347],[-72.76307,42.01198],[-72.76139,42.00988],[-72.7615,42.0093],[-72.76625,42.00787],[-72.76673,42.00327],[-72.81705,41.99769],[-72.81378,42.03674],[-72.86364,42.03753],[-72.86382,42.03538],[-72.873,42.01163],[-72.87454,42.00882],[-72.87871,41.99588],[-72.90224,41.93199],[-72.90297,41.93136],[-72.90539,41.92325],[-72.91535,41.8968],[-72.94065,41.8952],[-72.94618,41.87723],[-72.94634,41.87403],[-72.95365,41.85388],[-72.95365,41.84668],[-72.95274,41.84562],[-72.95177,41.84285],[-72.95063,41.84271],[-72.94653,41.84363],[-72.94224,41.84344],[-72.93909,41.84251],[-72.93679,41.84074],[-72.93635,41.8398],[-72.94902,41.80643],[-72.92562,41.80921],[-72.92478,41.80843],[-72.92381,41.80817],[-72.92384,41.80875],[-72.92118,41.80712],[-72.9207,41.80585],[-72.92101,41.80539],[-72.92682,41.804],[-72.92819,41.80251],[-72.92744,41.80052],[-72.92542,41.79844],[-72.92449,41.79001],[-72.92495,41.78779],[-72.9216,41.78254],[-72.92047,41.77957],[-72.9194,41.77856],[-72.91765,41.77774],[-72.90848,41.77604],[-72.90493,41.75809],[-72.90425,41.75024],[-72.89564,41.7124],[-72.89375,41.69958],[-72.8913,41.68995],[-72.88666,41.66601],[-72.88647,41.663],[-72.88339,41.64947],[-72.92391,41.64549],[-72.92365,41.64434],[-72.92213,41.64285],[-72.92195,41.64114],[-72.92778,41.64072],[-72.9286,41.64545],[-72.9385,41.64431],[-72.93364,41.60779],[-72.94468,41.56286],[-72.9451,41.55969],[-72.94635,41.5568],[-72.88388,41.56381],[-72.87926,41.56315],[-72.87975,41.56245],[-72.87412,41.55932],[-72.87331,41.55649],[-72.8719,41.557],[-72.87192,41.55487],[-72.86951,41.55453],[-72.8693,41.55351],[-72.86823,41.55224],[-72.86781,41.54903],[-72.84428,41.54472],[-72.84515,41.54741],[-72.84574,41.5535],[-72.84854,41.56733],[-72.84024,41.5691],[-72.82764,41.571],[-72.82964,41.5624],[-72.82574,41.5643],[-72.82614,41.5559],[-72.82124,41.55419],[-72.81914,41.5543],[-72.81024,41.5624],[-72.80924,41.562],[-72.80524,41.5666],[-72.80124,41.5731],[-72.77274,41.5768],[-72.75214,41.5789],[-72.75294,41.5925],[-72.74284,41.5944],[-72.73167,41.59578],[-72.72994,41.6015],[-72.7273,41.6018],[-72.72704,41.6024],[-72.72394,41.603],[-72.71454,41.60431],[-72.71592,41.60642],[-72.71364,41.61074],[-72.71257,41.61668],[-72.71113,41.61804],[-72.71284,41.61893],[-72.71329,41.62084],[-72.71553,41.62282],[-72.7158,41.62373],[-72.71591,41.625],[-72.7139,41.62771],[-72.62784,41.6402],[-72.63052,41.63328],[-72.50543,41.647],[-72.48163,41.6079],[-72.47434,41.59516],[-72.46673,41.5839],[-72.41723,41.5906],[-72.41037,41.60258],[-72.40848,41.60232],[-72.40606,41.59879],[-72.40127,41.59563],[-72.39935,41.59486],[-72.39748,41.59483],[-72.38415,41.58865],[-72.38347,41.59025],[-72.38396,41.59055],[-72.38237,41.59207],[-72.38223,41.59362],[-72.38106,41.59416],[-72.38079,41.59535],[-72.37761,41.59624],[-72.3774,41.59703],[-72.37659,41.59756],[-72.37709,41.59845],[-72.37637,41.59884],[-72.37613,41.60028],[-72.37521,41.6014],[-72.37433,41.60141],[-72.3711,41.59947],[-72.36782,41.6002],[-72.36522,41.59978],[-72.36372,41.60116],[-72.36249,41.60119],[-72.35927,41.59847],[-72.35621,41.59755],[-72.35244,41.59904],[-72.34354,41.59925],[-72.32809,41.60547],[-72.32451,41.61857],[-72.32923,41.6296],[-72.33423,41.6436]]]}},{"type":"Feature","properties":{"name":"Greater Bridgeport Planning Region"},"geometry":{"type":"Polygon","coordinates":[[[-73.14688,41.25537],[-73.15527,41.26909],[-73.17391,41.26862],[-73.17864,41.27264],[-73.18,41.27482],[-73.19859,41.29338],[-73.20069,41.29472],[-73.2048,41.29936],[-73.18472,41.32649],[-73.18061,41.33297],[-73.17681,41.33759],[-73.17066,41.35793],[-73.15944,41.37291],[-73.15965,41.3749],[-73.15705,41.3767],[-73.15792,41.37722],[-73.15883,41.37968],[-73.15798,41.38296],[-73.15866,41.3834],[-73.16125,41.38385],[-73.16656,41.3832],[-73.17134,41.38394],[-73.17336,41.3836],[-73.18327,41.39171],[-73.18757,41.38892],[-73.19037,41.38825],[-73.19135,41.38892],[-73.19421,41.38878],[-73.19562,41.38786],[-73.19641,41.38511],[-73.19783,41.38281],[-73.20358,41.37916],[-73.20339,41.37825],[-73.20224,41.37791],[-73.20203,41.37518],[-73.20131,41.37394],[-73.20228,41.37206],[-73.20483,41.37047],[-73.20661,41.37017],[-73.21035,41.36791],[-73.21342,41.36791],[-73.21503,41.36731],[-73.21513,41.36666],[-73.21655,41.36565],[-73.22116,41.364],[-73.22333,41.36422],[-73.22525,41.36535],[-73.22808,41.36515],[-73.22943,41.36653],[-73.2292,41.3682],[-73.22811,41.36867],[-73.22908,41.37032],[-73.26129,41.35501],[-73.32529,41.32247],[-73.32037,41.31539],[-73.31975,41.31529],[-73.31869,41.3139],[-73.31907,41.31328],[-73.31793,41.31193],[-73.316,41.31092],[-73.31549,41.30977],[-73.31565,41.30862],[-73.31422,41.3082],[-73.3048,41.29776],[-73.32764,41.29016],[-73.36881,41.27497],[-73.34143,41.24563],[-73.33679,41.24016],[-73.33389,41.23582],[-73.3309,41.23326],[-73.32581,41.22723],[-73.32591,41.22681],[-73.32685,41.22668],[-73.3267,41.22594],[-73.32585,41.22466],[-73.32456,41.22426],[-73.32363,41.22192],[-73.32547,41.22006],[-73.32592,41.21815],[-73.32567,41.21621],[-73.32913,41.21335],[-73.3294,41.21188],[-73.33031,41.21123],[-73.3301,41.21061],[-73.32891,41.21],[-73.33074,41.20832],[-73.33249,41.20501],[-73.33236,41.20402],[-73.3333,41.20286],[-73.33298,41.20097],[-73.33348,41.19884],[-73.33718,41.19737],[-73.33846,41.19454],[-73.3074,41.15233],[-73.30602,41.15277],[-73.30478,41.15241],[-73.3051,41.15008],[-73.30598,41.14948],[-73.30425,41.14898],[-73.30339,41.14585],[-73.30006,41.14557],[-73.29898,41.14501],[-73.29811,41.14366],[-73.299,41.14074],[-73.29772,41.13788],[-73.29668,41.13671],[-73.29722,41.13559],[-73.29613,41.13368],[-73.29738,41.13161],[-73.29653,41.1297],[-73.29713,41.12914],[-73.29692,41.12802],[-73.29757,41.12755],[-73.29711,41.12638],[-73.29902,41.12517],[-73.29771,41.12382],[-73.29556,41.0796],[-73.29141,41.01788],[-73.24956,41.02587],[-73.2291,41.0306],[-72.99955,41.08711],[-73.04889,41.1251],[-73.10745,41.1684],[-73.11985,41.1757],[-73.12145,41.1776],[-73.12235,41.1798],[-73.12245,41.1829],[-73.12135,41.1875],[-73.11535,41.1935],[-73.10965,41.202],[-73.10925,41.2041],[-73.11065,41.2078],[-73.11065,41.2108],[-73.11025,41.214],[-73.10835,41.2183],[-73.11045,41.2253],[-73.11055,41.2274],[-73.10995,41.2294],[-73.10495,41.2366],[-73.10157,41.24009],[-73.0934,41.24462],[-73.09122,41.24641],[-73.08735,41.25179],[-73.08675,41.2546],[-73.08875,41.2554],[-73.09087,41.25708],[-73.09456,41.25621],[-73.09527,41.25805],[-73.09715,41.25888],[-73.09883,41.25937],[-73.10298,41.25951],[-73.10295,41.26164],[-73.10411,41.26316],[-73.10661,41.26378],[-73.10726,41.26437],[-73.10661,41.26633],[-73.10593,41.26681],[-73.1083,41.26858],[-73.1439,41.25716],[-73.14688,41.25537]]]}},{"type":"Feature","properties":{"name":"Lower Connecticut River Valley Planning Region"},"geometry":{"type":"Polygon","coordinates":[[[-72.24852,41.2759],[-72.24834,41.29733],[-72.24868,41.29957],[-72.25062,41.30472],[-72.25296,41.30914],[-72.25482,41.31031],[-72.25519,41.31152],[-72.25475,41.31283],[-72.25603,41.31559],[-72.25668,41.31951],[-72.25832,41.32184],[-72.25812,41.32347],[-72.25733,41.32397],[-72.25716,41.32508],[-72.2564,41.3259],[-72.25931,41.32969],[-72.26133,41.334],[-72.26509,41.33927],[-72.27072,41.35045],[-72.2745,41.35609],[-72.27672,41.3663],[-72.27925,41.38821],[-72.28215,41.4059],[-72.2791,41.42181],[-72.27906,41.42606],[-72.27664,41.44045],[-72.28658,41.43907],[-72.30487,41.43273],[-72.31254,41.47841],[-72.31525,41.47809],[-72.3226,41.51608],[-72.32339,41.53425],[-72.35858,41.53144],[-72.36163,41.53082],[-72.43077,41.52457],[-72.44395,41.54642],[-72.44685,41.55038],[-72.44655,41.55066],[-72.44686,41.55137],[-72.45081,41.55668],[-72.46673,41.5839],[-72.47434,41.59516],[-72.48163,41.6079],[-72.50543,41.647],[-72.63052,41.63328],[-72.62784,41.6402],[-72.7139,41.62771],[-72.71591,41.625],[-72.7158,41.62373],[-72.71553,41.62282],[-72.71329,41.62084],[-72.71284,41.61893],[-72.71113,41.61804],[-72.71257,41.61668],[-72.71364,41.61074],[-72.71592,41.60642],[-72.71454,41.60431],[-72.72394,41.603],[-72.72704,41.6024],[-72.7273,41.6018],[-72.72994,41.6015],[-72.73167,41.59578],[-72.74284,41.5944],[-72.75294,41.5925],[-72.75218,41.57889],[-72.74704,41.52719],[-72.74333,41.48311],[-72.73389,41.48537],[-72.73657,41.46448],[-72.73912,41.43829],[-72.74614,41.4233],[-72.69264,41.4323],[-72.68267,41.43378],[-72.67874,41.4338],[-72.67109,41.43536],[-72.66683,41.43569],[-72.65419,41.43826],[-72.65365,41.43792],[-72.65456,41.43626],[-72.65266,41.43469],[-72.6498,41.4356],[-72.64836,41.43515],[-72.6486,41.43311],[-72.64962,41.43195],[-72.6495,41.43092],[-72.64613,41.43112],[-72.64226,41.42924],[-72.64814,41.42282],[-72.65042,41.41896],[-72.64921,41.41735],[-72.64741,41.41696],[-72.64687,41.41574],[-72.64517,41.41585],[-72.64476,41.4152],[-72.64112,41.41348],[-72.6378,41.41232],[-72.6368,41.41273],[-72.63203,41.41214],[-72.63157,41.41138],[-72.63252,41.41045],[-72.63266,41.40953],[-72.63212,41.40919],[-72.63232,41.40816],[-72.63044,41.40676],[-72.63084,41.4038],[-72.63028,41.40268],[-72.6288,41.40106],[-72.62526,41.39953],[-72.6251,41.39859],[-72.62591,41.39716],[-72.62439,41.39602],[-72.62406,41.39514],[-72.62271,41.39463],[-72.62246,41.39359],[-72.62128,41.39343],[-72.62002,41.39225],[-72.61808,41.39174],[-72.61603,41.38874],[-72.61233,41.38618],[-72.61293,41.38492],[-72.61384,41.3844],[-72.61401,41.38078],[-72.61262,41.37799],[-72.61142,41.3773],[-72.61152,41.3765],[-72.60884,41.37351],[-72.60874,41.37112],[-72.60924,41.37053],[-72.60813,41.3674],[-72.61064,41.36675],[-72.60935,41.36536],[-72.60975,41.36337],[-72.61223,41.36267],[-72.61263,41.36049],[-72.61224,41.35909],[-72.61282,41.35689],[-72.61265,41.35383],[-72.61235,41.35268],[-72.61147,41.35188],[-72.61288,41.3504],[-72.61172,41.34866],[-72.61112,41.34445],[-72.6113,41.34307],[-72.61261,41.34254],[-72.61269,41.34087],[-72.61372,41.34024],[-72.61346,41.33965],[-72.61441,41.33731],[-72.6136,41.33622],[-72.61411,41.33427],[-72.61496,41.33359],[-72.61443,41.33286],[-72.61476,41.33136],[-72.61427,41.32962],[-72.61208,41.32922],[-72.61149,41.32748],[-72.60865,41.32817],[-72.6072,41.32767],[-72.60598,41.32782],[-72.60277,41.32605],[-72.60078,41.32581],[-72.59951,41.32726],[-72.5977,41.32835],[-72.59667,41.32845],[-72.59571,41.32804],[-72.59588,41.32766],[-72.59502,41.32699],[-72.59479,41.32613],[-72.5915,41.32266],[-72.5892,41.32273],[-72.58751,41.32433],[-72.58594,41.32401],[-72.58596,41.3218],[-72.58515,41.31895],[-72.58781,41.31605],[-72.5889,41.31626],[-72.58961,41.3155],[-72.58741,41.31375],[-72.58618,41.31423],[-72.5849,41.31395],[-72.58489,41.31293],[-72.58656,41.31294],[-72.58857,41.3117],[-72.5858,41.31011],[-72.58562,41.30966],[-72.58616,41.30915],[-72.58555,41.30835],[-72.5856,41.30735],[-72.5825,41.30639],[-72.58129,41.30551],[-72.58112,41.30493],[-72.58182,41.3039],[-72.57987,41.304],[-72.57763,41.30331],[-72.57634,41.30242],[-72.57595,41.30092],[-72.57345,41.29917],[-72.5707,41.298],[-72.57178,41.29762],[-72.56998,41.29665],[-72.57081,41.29578],[-72.57015,41.29442],[-72.56756,41.29417],[-72.56708,41.29309],[-72.56563,41.29239],[-72.5643,41.28899],[-72.56113,41.2875],[-72.55914,41.28473],[-72.55743,41.2837],[-72.55724,41.28199],[-72.55489,41.28059],[-72.55113,41.28058],[-72.54887,41.28189],[-72.54599,41.28034],[-72.54805,41.27741],[-72.54514,41.27548],[-72.54434,41.2737],[-72.54704,41.2716],[-72.54636,41.2674],[-72.54765,41.26432],[-72.54724,41.2625],[-72.54573,41.26024],[-72.5279,41.25012],[-72.5279,41.17777],[-72.24853,41.23071],[-72.24852,41.2759]]]}},{"type":"Feature","properties":{"name":"Naugatuck Valley Planning Region"},"geometry":{"type":"Polygon","coordinates":[[[-73.06785,41.301],[-73.06587,41.30452],[-73.06481,41.30532],[-73.06503,41.30613],[-73.06175,41.31008],[-73.05898,41.31163],[-73.0567,41.31217],[-73.0532,41.31114],[-73.05313,41.31149],[-73.04911,41.3113],[-73.04071,41.31389],[-73.03893,41.32801],[-73.03998,41.33236],[-73.04233,41.33857],[-73.04294,41.33882],[-73.04372,41.34232],[-73.04633,41.34608],[-73.04645,41.35209],[-73.04907,41.38105],[-73.0482,41.3915],[-73.04707,41.39884],[-73.04165,41.4209],[-73.02946,41.41949],[-73.02522,41.43457],[-73.02497,41.45123],[-73.02575,41.4596],[-73.00335,41.46272],[-73.00086,41.46992],[-73.0013,41.47106],[-72.98976,41.46887],[-72.98544,41.46904],[-72.96619,41.46625],[-72.93594,41.4627],[-72.92674,41.4603],[-72.91724,41.45977],[-72.88667,41.44796],[-72.87985,41.45607],[-72.87813,41.45751],[-72.87664,41.45967],[-72.87738,41.46118],[-72.8527,41.49435],[-72.85327,41.49456],[-72.8463,41.50283],[-72.84861,41.50985],[-72.84957,41.51459],[-72.8503,41.51573],[-72.85138,41.51596],[-72.8538,41.52221],[-72.85308,41.52492],[-72.85777,41.52637],[-72.85798,41.52724],[-72.86049,41.52756],[-72.86124,41.5281],[-72.85798,41.53455],[-72.85361,41.53348],[-72.85169,41.54029],[-72.85315,41.54641],[-72.86781,41.54903],[-72.86823,41.55224],[-72.8693,41.55351],[-72.86951,41.55453],[-72.87192,41.55487],[-72.8719,41.557],[-72.87331,41.55649],[-72.87411,41.55827],[-72.87396,41.55915],[-72.87975,41.56245],[-72.87926,41.56315],[-72.88388,41.56381],[-72.94635,41.5568],[-72.9451,41.55969],[-72.94468,41.56286],[-72.93364,41.60779],[-72.9385,41.64431],[-72.9286,41.64545],[-72.92778,41.64072],[-72.92195,41.64114],[-72.92213,41.64285],[-72.92365,41.64434],[-72.92391,41.64549],[-72.88339,41.64947],[-72.88647,41.663],[-72.88666,41.66601],[-72.8913,41.68995],[-72.89375,41.69958],[-72.89564,41.7124],[-72.89827,41.72318],[-72.90503,41.72218],[-72.94308,41.71884],[-72.94409,41.71808],[-72.94656,41.71774],[-72.95927,41.71668],[-72.96198,41.71529],[-72.96136,41.71648],[-72.99855,41.7125],[-72.99895,41.7144],[-73.05526,41.70816],[-73.0684,41.70709],[-73.0837,41.69927],[-73.09541,41.69448],[-73.14203,41.67229],[-73.17076,41.6692],[-73.26145,41.66464],[-73.25543,41.61653],[-73.2535,41.60445],[-73.26734,41.6032],[-73.2612,41.56261],[-73.2609,41.55722],[-73.25803,41.53694],[-73.25227,41.51213],[-73.3079,41.506],[-73.31939,41.50514],[-73.32052,41.50398],[-73.3213,41.5005],[-73.32551,41.49531],[-73.32679,41.49304],[-73.32478,41.48961],[-73.32684,41.48597],[-73.32711,41.48453],[-73.32267,41.48077],[-73.32091,41.47701],[-73.31278,41.46994],[-73.31047,41.46882],[-73.30503,41.47115],[-73.30276,41.47144],[-73.29959,41.47011],[-73.29826,41.46763],[-73.29831,41.46477],[-73.29983,41.46078],[-73.29986,41.45843],[-73.30079,41.4559],[-73.29951,41.45102],[-73.29776,41.44828],[-73.29395,41.44736],[-73.29126,41.44811],[-73.2878,41.45031],[-73.28074,41.4523],[-73.27825,41.45264],[-73.2737,41.45165],[-73.27024,41.448],[-73.26749,41.44358],[-73.26579,41.4368],[-73.26368,41.43453],[-73.2592,41.43333],[-73.25773,41.43356],[-73.25119,41.43777],[-73.24526,41.4399],[-73.24433,41.43956],[-73.24356,41.43856],[-73.24234,41.43607],[-73.24229,41.42984],[-73.23841,41.42625],[-73.23591,41.42615],[-73.22997,41.42912],[-73.22677,41.42982],[-73.22648,41.43031],[-73.21824,41.42907],[-73.21183,41.42277],[-73.20746,41.4204],[-73.20156,41.4158],[-73.19976,41.4132],[-73.19816,41.4119],[-73.19026,41.4103],[-73.18656,41.4086],[-73.18486,41.4063],[-73.18536,41.4022],[-73.18756,41.3996],[-73.18816,41.3982],[-73.18796,41.3973],[-73.18117,41.38961],[-73.17415,41.38417],[-73.17266,41.38344],[-73.17134,41.38394],[-73.16656,41.3832],[-73.16125,41.38385],[-73.15798,41.38296],[-73.15883,41.37968],[-73.15792,41.37722],[-73.15705,41.3767],[-73.15965,41.3749],[-73.15944,41.37291],[-73.17066,41.35793],[-73.17681,41.33759],[-73.18061,41.33297],[-73.18472,41.32649],[-73.2048,41.29936],[-73.20069,41.29472],[-73.19859,41.29338],[-73.18,41.27482],[-73.17864,41.27264],[-73.17391,41.26862],[-73.15527,41.26909],[-73.14688,41.25537],[-73.1439,41.25716],[-73.1083,41.26858],[-73.10593,41.26681],[-73.10661,41.26633],[-73.10726,41.26437],[-73.10661,41.26378],[-73.10411,41.26316],[-73.10295,41.26164],[-73.10298,41.25951],[-73.09883,41.25937],[-73.09715,41.25888],[-73.09527,41.25805],[-73.09456,41.25621],[-73.09087,41.25708],[-73.08875,41.2554],[-73.08675,41.2546],[-73.08785,41.2601],[-73.08775,41.2653],[-73.08868,41.27174],[-73.08685,41.2766],[-73.08375,41.2815],[-73.07885,41.2845],[-73.07125,41.2873],[-73.06875,41.2892],[-73.06525,41.2949],[-73.06505,41.2976],[-73.06615,41.2995],[-73.06785,41.301]]]}},{"type":"Feature","properties":{"name":"Northeastern Connecticut Planning Region"},"geometry":{"type":"Polygon","coordinates":[[[-72.23479,41.9578],[-72.21698,41.95816],[-72.21729,41.94324],[-72.21631,41.89282],[-72.2169,41.88446],[-72.21772,41.83518],[-72.1645,41.83491],[-72.15672,41.75372],[-72.12252,41.74877],[-72.11205,41.7459],[-72.12249,41.71275],[-72.12019,41.68348],[-72.11977,41.66183],[-71.95194,41.63433],[-71.88442,41.6412],[-71.88322,41.6251],[-71.87545,41.5794],[-71.87497,41.57889],[-71.87384,41.57034],[-71.86341,41.51493],[-71.79316,41.5057],[-71.78821,41.62102],[-71.78724,41.65611],[-71.79107,41.7702],[-71.79788,41.93101],[-71.79919,42.00805],[-71.80067,42.02351],[-71.90325,42.02458],[-71.98768,42.02688],[-72.07183,42.02764],[-72.14315,42.03052],[-72.20508,42.03107],[-72.21489,42.0001],[-72.22982,41.96756],[-72.23479,41.9578]]]}},{"type":"Feature","properties":{"name":"Northwest Hills Planning Region"},"geometry":{"type":"Polygon","coordinates":[[[-72.99895,41.7144],[-72.99855,41.7125],[-72.96136,41.71648],[-72.96198,41.71529],[-72.95927,41.71668],[-72.94656,41.71774],[-72.94409,41.71808],[-72.94308,41.71884],[-72.90503,41.72218],[-72.89827,41.72318],[-72.89983,41.73205],[-72.90208,41.73974],[-72.90273,41.74466],[-72.90425,41.75024],[-72.90493,41.75809],[-72.90848,41.77604],[-72.91765,41.77774],[-72.9194,41.77856],[-72.92047,41.77957],[-72.9216,41.78254],[-72.92499,41.78791],[-72.92449,41.79001],[-72.92542,41.79844],[-72.92744,41.80052],[-72.92819,41.80251],[-72.92682,41.804],[-72.92101,41.80539],[-72.9207,41.80585],[-72.92118,41.80712],[-72.92384,41.80875],[-72.92381,41.80817],[-72.92478,41.80843],[-72.92562,41.80921],[-72.94902,41.80643],[-72.93635,41.8398],[-72.93679,41.84074],[-72.93909,41.84251],[-72.94224,41.84344],[-72.94653,41.84363],[-72.95063,41.84271],[-72.95177,41.84285],[-72.95274,41.84562],[-72.95365,41.84668],[-72.95365,41.85388],[-72.94634,41.87403],[-72.94618,41.87723],[-72.94065,41.8952],[-72.91535,41.8968],[-72.90539,41.92325],[-72.90297,41.93136],[-72.90224,41.93199],[-72.87871,41.99588],[-72.87454,42.00882],[-72.873,42.01163],[-72.86382,42.03538],[-72.86364,42.03753],[-72.97904,42.03824],[-73.0368,42.03929],[-73.34072,42.04837],[-73.42851,42.05048],[-73.48732,42.04953],[-73.48962,42.00009],[-73.49223,41.96718],[-73.4966,41.9218],[-73.4983,41.89251],[-73.50531,41.82394],[-73.51096,41.75875],[-73.51192,41.74094],[-73.51679,41.68758],[-73.51808,41.66672],[-73.51602,41.66596],[-73.51038,41.6665],[-73.50692,41.6658],[-73.50407,41.6691],[-73.50186,41.66955],[-73.45666,41.67498],[-73.44629,41.67573],[-73.40131,41.68077],[-73.38212,41.68333],[-73.38051,41.67165],[-73.37786,41.65898],[-73.37041,41.65529],[-73.35908,41.64652],[-73.35622,41.62901],[-73.34862,41.59518],[-73.34307,41.56586],[-73.34129,41.55038],[-73.33925,41.54451],[-73.33867,41.54108],[-73.33644,41.53378],[-73.33299,41.51349],[-73.33031,41.50441],[-73.3079,41.506],[-73.25227,41.51213],[-73.25803,41.53694],[-73.2609,41.55722],[-73.2612,41.56261],[-73.26734,41.6032],[-73.2535,41.60445],[-73.25543,41.61653],[-73.26145,41.66464],[-73.17076,41.6692],[-73.14203,41.67229],[-73.09541,41.69448],[-73.0837,41.69927],[-73.0684,41.70709],[-73.05526,41.70816],[-72.99895,41.7144]]]}},{"type":"Feature","properties":{"name":"South Central Connecticut Planning Region"},"geometry":{"type":"Polygon","coordinates":[[[-72.88667,41.44796],[-72.91724,41.45977],[-72.92674,41.4603],[-72.93594,41.4627],[-72.96619,41.46625],[-72.98544,41.46904],[-72.98976,41.46887],[-73.0013,41.47106],[-73.00086,41.46992],[-73.00335,41.46272],[-73.02575,41.4596],[-73.02497,41.45123],[-73.02522,41.43457],[-73.02946,41.41949],[-73.04165,41.4209],[-73.04707,41.39884],[-73.0482,41.3915],[-73.04907,41.38105],[-73.04645,41.35209],[-73.04633,41.34608],[-73.04372,41.34232],[-73.04294,41.33882],[-73.04233,41.33857],[-73.03998,41.33236],[-73.03893,41.32801],[-73.04071,41.31389],[-73.04911,41.3113],[-73.05313,41.31149],[-73.0532,41.31114],[-73.0567,41.31217],[-73.05792,41.31206],[-73.06175,41.31008],[-73.06503,41.30613],[-73.06481,41.30532],[-73.06587,41.30452],[-73.06785,41.301],[-73.06615,41.2995],[-73.06505,41.2976],[-73.06525,41.2949],[-73.06875,41.2892],[-73.07125,41.2873],[-73.07885,41.2845],[-73.08375,41.2815],[-73.08685,41.2766],[-73.08868,41.27174],[-73.08775,41.2653],[-73.08785,41.2601],[-73.08675,41.2546],[-73.08735,41.25179],[-73.09122,41.24641],[-73.0934,41.24462],[-73.10157,41.24009],[-73.10495,41.2366],[-73.10995,41.2294],[-73.11055,41.2274],[-73.11045,41.2253],[-73.10835,41.2183],[-73.11025,41.214],[-73.11065,41.2078],[-73.10925,41.2041],[-73.11054,41.20032],[-73.11535,41.1935],[-73.12135,41.1875],[-73.12245,41.1829],[-73.12235,41.1798],[-73.12145,41.1776],[-73.11985,41.1757],[-73.10745,41.1684],[-73.04889,41.1251],[-72.99955,41.08711],[-72.5279,41.17777],[-72.5279,41.25012],[-72.54573,41.26024],[-72.54724,41.2625],[-72.54765,41.26432],[-72.54636,41.2674],[-72.54704,41.2716],[-72.54434,41.2737],[-72.54514,41.27548],[-72.54805,41.27741],[-72.54599,41.28034],[-72.54887,41.28189],[-72.55113,41.28058],[-72.55489,41.28059],[-72.55724,41.28199],[-72.55743,41.2837],[-72.55914,41.28473],[-72.56113,41.2875],[-72.5643,41.28899],[-72.56563,41.29239],[-72.56708,41.29309],[-72.56756,41.29417],[-72.57015,41.29442],[-72.57081,41.29578],[-72.56998,41.29665],[-72.57178,41.29762],[-72.5707,41.298],[-72.57345,41.29917],[-72.57595,41.30092],[-72.57634,41.30242],[-72.57763,41.30331],[-72.57987,41.304],[-72.58182,41.3039],[-72.58112,41.30493],[-72.58129,41.30551],[-72.5825,41.30639],[-72.5856,41.30735],[-72.58555,41.30835],[-72.58616,41.30915],[-72.58562,41.30966],[-72.5858,41.31011],[-72.58857,41.3117],[-72.58656,41.31294],[-72.58489,41.31293],[-72.5849,41.31395],[-72.58618,41.31423],[-72.58741,41.31375],[-72.58961,41.3155],[-72.5889,41.31626],[-72.58781,41.31605],[-72.58515,41.31895],[-72.58596,41.3218],[-72.58594,41.32401],[-72.58751,41.32433],[-72.5892,41.32273],[-72.5915,41.32266],[-72.59479,41.32613],[-72.59502,41.32699],[-72.59588,41.32766],[-72.59571,41.32804],[-72.59667,41.32845],[-72.5977,41.32835],[-72.59951,41.32726],[-72.60078,41.32581],[-72.60277,41.32605],[-72.60598,41.32782],[-72.6072,41.32767],[-72.60865,41.32817],[-72.61149,41.32748],[-72.61208,41.32922],[-72.61427,41.32962],[-72.61476,41.33136],[-72.61443,41.33286],[-72.61496,41.33359],[-72.61411,41.33427],[-72.6136,41.33622],[-72.61441,41.33731],[-72.61346,41.33965],[-72.61372,41.34024],[-72.61269,41.34087],[-72.61261,41.34254],[-72.6113,41.34307],[-72.61112,41.34445],[-72.61172,41.34866],[-72.61288,41.3504],[-72.61147,41.35188],[-72.61235,41.35268],[-72.61265,41.35383],[-72.61282,41.35689],[-72.61224,41.35909],[-72.61263,41.36049],[-72.61223,41.36267],[-72.60975,41.36337],[-72.60935,41.36536],[-72.61064,41.36675],[-72.60813,41.3674],[-72.60924,41.37053],[-72.60874,41.37112],[-72.60884,41.37351],[-72.61152,41.3765],[-72.61142,41.3773],[-72.61262,41.37799],[-72.61401,41.38078],[-72.61384,41.3844],[-72.61293,41.38492],[-72.61233,41.38618],[-72.61603,41.38874],[-72.61808,41.39174],[-72.62002,41.39225],[-72.62128,41.39343],[-72.62246,41.39359],[-72.62271,41.39463],[-72.62406,41.39514],[-72.62439,41.39602],[-72.62591,41.39716],[-72.6251,41.39859],[-72.62526,41.39953],[-72.6288,41.40106],[-72.63028,41.40268],[-72.63084,41.4038],[-72.63044,41.40676],[-72.63232,41.40816],[-72.63212,41.40919],[-72.63266,41.40953],[-72.63252,41.41045],[-72.63157,41.41138],[-72.63203,41.41214],[-72.6368,41.41273],[-72.6378,41.41232],[-72.64112,41.41348],[-72.64476,41.4152],[-72.64517,41.41585],[-72.64687,41.41574],[-72.64741,41.41696],[-72.64921,41.41735],[-72.65042,41.41896],[-72.64814,41.42282],[-72.64226,41.42924],[-72.64613,41.43112],[-72.6495,41.43092],[-72.64962,41.43195],[-72.6486,41.43311],[-72.64836,41.43515],[-72.6498,41.4356],[-72.65266,41.43469],[-72.65456,41.43626],[-72.65365,41.43792],[-72.65419,41.43826],[-72.66683,41.43569],[-72.67109,41.43536],[-72.67874,41.4338],[-72.68267,41.43378],[-72.69264,41.4323],[-72.74614,41.4233],[-72.73912,41.43829],[-72.73657,41.46448],[-72.73389,41.48537],[-72.74333,41.48311],[-72.74704,41.52719],[-72.75218,41.57889],[-72.77274,41.5768],[-72.80124,41.5731],[-72.80524,41.5666],[-72.80924,41.562],[-72.81024,41.5624],[-72.81914,41.5543],[-72.82124,41.55419],[-72.82614,41.5559],[-72.82574,41.5643],[-72.82964,41.5624],[-72.82764,41.571],[-72.84024,41.5691],[-72.84854,41.56733],[-72.84574,41.5535],[-72.84515,41.54741],[-72.84428,41.54472],[-72.85315,41.54641],[-72.85169,41.54029],[-72.85361,41.53348],[-72.85798,41.53455],[-72.86124,41.5281],[-72.86049,41.52756],[-72.85798,41.52724],[-72.85777,41.52637],[-72.85308,41.52492],[-72.8538,41.52221],[-72.85138,41.51596],[-72.8503,41.51573],[-72.84957,41.51459],[-72.84861,41.50985],[-72.8463,41.50283],[-72.85327,41.49456],[-72.8527,41.49435],[-72.87738,41.46118],[-72.87664,41.45967],[-72.87813,41.45751],[-72.87985,41.45607],[-72.88667,41.44796]]]}},{"type":"Feature","properties":{"name":"Southeastern Connecticut Planning Region"},"geometry":{"type":"Polygon","coordinates":[[[-72.05006,41.27661],[-72.01921,41.29059],[-71.99949,41.29579],[-71.92945,41.31039],[-71.90726,41.30448],[-71.90166,41.31268],[-71.9003,41.31605],[-71.8931,41.32737],[-71.89207,41.33008],[-71.87451,41.32187],[-71.86654,41.31919],[-71.85746,41.32079],[-71.85192,41.32466],[-71.84771,41.3296],[-71.84461,41.33073],[-71.83728,41.33507],[-71.82936,41.34243],[-71.82978,41.34623],[-71.8313,41.35129],[-71.83604,41.35399],[-71.83729,41.35671],[-71.83787,41.36015],[-71.83763,41.3655],[-71.83184,41.37034],[-71.83165,41.37223],[-71.83266,41.37585],[-71.83064,41.37877],[-71.83353,41.38226],[-71.83259,41.38638],[-71.83313,41.38784],[-71.83571,41.38985],[-71.83875,41.39105],[-71.84221,41.39538],[-71.84224,41.39688],[-71.84107,41.39966],[-71.84155,41.40305],[-71.84326,41.40446],[-71.84359,41.40533],[-71.84235,41.40808],[-71.84263,41.40976],[-71.84203,41.41071],[-71.83926,41.41239],[-71.8358,41.41223],[-71.83411,41.41158],[-71.8279,41.41433],[-71.82538,41.41469],[-71.82438,41.41546],[-71.82373,41.41728],[-71.82033,41.41938],[-71.81809,41.41985],[-71.81215,41.41921],[-71.80681,41.41667],[-71.80368,41.41743],[-71.80144,41.41554],[-71.79951,41.41584],[-71.79774,41.41673],[-71.7963,41.45152],[-71.79316,41.5057],[-71.86341,41.51493],[-71.87384,41.57034],[-71.87497,41.57889],[-71.87545,41.5794],[-71.88322,41.6251],[-71.88442,41.6412],[-71.95194,41.63433],[-72.11977,41.66183],[-72.12019,41.68348],[-72.12249,41.71275],[-72.11205,41.7459],[-72.12252,41.74877],[-72.15632,41.75349],[-72.15763,41.7518],[-72.15889,41.75144],[-72.15915,41.75074],[-72.16342,41.74974],[-72.16531,41.75033],[-72.16607,41.75196],[-72.16848,41.75223],[-72.17165,41.74847],[-72.17302,41.74948],[-72.17413,41.75118],[-72.17463,41.75101],[-72.17476,41.75016],[-72.17639,41.74998],[-72.17656,41.75072],[-72.17604,41.75144],[-72.17831,41.75309],[-72.17748,41.75387],[-72.17765,41.75524],[-72.18227,41.75621],[-72.18698,41.75543],[-72.18803,41.75481],[-72.18799,41.75374],[-72.18573,41.75191],[-72.18925,41.7504],[-72.18877,41.74841],[-72.18905,41.74711],[-72.19343,41.74371],[-72.19564,41.73961],[-72.19569,41.73703],[-72.19511,41.73571],[-72.19444,41.73494],[-72.19251,41.73453],[-72.191,41.73258],[-72.19096,41.73139],[-72.1921,41.73041],[-72.1952,41.72998],[-72.19708,41.73082],[-72.19771,41.73177],[-72.19852,41.73174],[-72.19916,41.72961],[-72.19774,41.72888],[-72.19823,41.72817],[-72.25264,41.7282],[-72.25198,41.72728],[-72.2532,41.7258],[-72.25299,41.72492],[-72.25201,41.72424],[-72.24952,41.72447],[-72.24709,41.72349],[-72.24528,41.72049],[-72.24425,41.71692],[-72.24281,41.71645],[-72.23956,41.71419],[-72.2401,41.7136],[-72.24266,41.71307],[-72.24286,41.71409],[-72.24344,41.71385],[-72.24401,41.71441],[-72.24497,41.71388],[-72.24372,41.71306],[-72.24329,41.71212],[-72.24466,41.71177],[-72.24462,41.71079],[-72.2457,41.71095],[-72.24657,41.70827],[-72.24759,41.70882],[-72.24781,41.70798],[-72.24721,41.70687],[-72.24423,41.70673],[-72.24402,41.70573],[-72.24438,41.70509],[-72.24519,41.70511],[-72.24598,41.70372],[-72.24725,41.70412],[-72.25125,41.70332],[-72.25144,41.70148],[-72.25017,41.69933],[-72.25201,41.69908],[-72.25384,41.70043],[-72.25537,41.70049],[-72.25772,41.69979],[-72.25842,41.69844],[-72.26073,41.69864],[-72.26088,41.69668],[-72.26168,41.69606],[-72.26128,41.69535],[-72.26235,41.6939],[-72.26352,41.69334],[-72.26394,41.69183],[-72.26525,41.69161],[-72.2665,41.69067],[-72.26758,41.69137],[-72.26819,41.69277],[-72.26921,41.69153],[-72.27012,41.69133],[-72.27332,41.69286],[-72.27431,41.69261],[-72.27404,41.6918],[-72.27475,41.69061],[-72.26939,41.68571],[-72.2696,41.68474],[-72.26786,41.68153],[-72.26739,41.67817],[-72.26614,41.67727],[-72.26747,41.67591],[-72.26702,41.6746],[-72.26812,41.67303],[-72.26842,41.67114],[-72.27867,41.67198],[-72.30364,41.65398],[-72.33423,41.6436],[-72.32923,41.6296],[-72.32451,41.61857],[-72.32809,41.60547],[-72.34354,41.59925],[-72.35244,41.59904],[-72.35621,41.59755],[-72.35927,41.59847],[-72.36249,41.60119],[-72.36372,41.60116],[-72.36522,41.59978],[-72.36782,41.6002],[-72.3711,41.59947],[-72.37433,41.60141],[-72.37521,41.6014],[-72.37613,41.60028],[-72.37637,41.59884],[-72.37709,41.59845],[-72.37659,41.59756],[-72.3774,41.59703],[-72.37761,41.59624],[-72.38079,41.59535],[-72.38106,41.59416],[-72.38223,41.59362],[-72.38237,41.59207],[-72.38396,41.59055],[-72.38347,41.59025],[-72.38415,41.58865],[-72.39748,41.59483],[-72.39935,41.59486],[-72.40127,41.59563],[-72.40606,41.59879],[-72.40848,41.60232],[-72.41037,41.60258],[-72.41723,41.5906],[-72.46673,41.5839],[-72.45081,41.55668],[-72.44686,41.55137],[-72.44655,41.55066],[-72.44685,41.55038],[-72.44395,41.54642],[-72.43077,41.52457],[-72.36163,41.53082],[-72.35858,41.53144],[-72.32339,41.53425],[-72.3226,41.51608],[-72.31525,41.47809],[-72.31254,41.47841],[-72.30487,41.43273],[-72.28658,41.43907],[-72.27664,41.44045],[-72.27906,41.42606],[-72.2791,41.42181],[-72.28215,41.4059],[-72.27925,41.38821],[-72.27672,41.3663],[-72.2745,41.35609],[-72.27072,41.35045],[-72.26509,41.33927],[-72.26133,41.334],[-72.25931,41.32969],[-72.2564,41.3259],[-72.25716,41.32508],[-72.25733,41.32397],[-72.25812,41.32347],[-72.25832,41.32184],[-72.25668,41.31951],[-72.25603,41.31559],[-72.25475,41.31283],[-72.25519,41.31152],[-72.25482,41.31031],[-72.25296,41.30914],[-72.25062,41.30472],[-72.24868,41.29957],[-72.24834,41.29733],[-72.24853,41.23071],[-72.14153,41.2501],[-72.08179,41.26224],[-72.05006,41.27661]]]}},{"type":"Feature","properties":{"name":"Western Connecticut Planning Region"},"geometry":{"type":"Polygon","coordinates":[[[-73.29556,41.0796],[-73.29771,41.12382],[-73.29902,41.12517],[-73.29711,41.12638],[-73.29757,41.12755],[-73.29692,41.12802],[-73.29713,41.12914],[-73.29653,41.1297],[-73.29738,41.13161],[-73.29613,41.13368],[-73.29722,41.13559],[-73.29668,41.13671],[-73.29772,41.13788],[-73.299,41.14074],[-73.29811,41.14366],[-73.29898,41.14501],[-73.30006,41.14557],[-73.30339,41.14585],[-73.30425,41.14898],[-73.30598,41.14948],[-73.3051,41.15008],[-73.30478,41.15241],[-73.30602,41.15277],[-73.3074,41.15233],[-73.33846,41.19454],[-73.33718,41.19737],[-73.33348,41.19884],[-73.33298,41.20097],[-73.3333,41.20286],[-73.33236,41.20402],[-73.33249,41.20501],[-73.33074,41.20832],[-73.32891,41.21],[-73.3301,41.21061],[-73.33031,41.21123],[-73.3294,41.21188],[-73.32913,41.21335],[-73.32567,41.21621],[-73.32592,41.21815],[-73.32547,41.22006],[-73.32418,41.22103],[-73.32364,41.22222],[-73.32456,41.22426],[-73.32585,41.22466],[-73.3267,41.22594],[-73.32685,41.22668],[-73.32591,41.22681],[-73.32594,41.22744],[-73.3309,41.23326],[-73.33389,41.23582],[-73.33679,41.24016],[-73.34143,41.24563],[-73.36881,41.27497],[-73.32764,41.29016],[-73.3048,41.29776],[-73.31422,41.3082],[-73.31565,41.30862],[-73.31549,41.30977],[-73.316,41.31092],[-73.31793,41.31193],[-73.31907,41.31328],[-73.31869,41.3139],[-73.31975,41.31529],[-73.32037,41.31539],[-73.32529,41.32247],[-73.26129,41.35501],[-73.22908,41.37032],[-73.22811,41.36867],[-73.2292,41.3682],[-73.22943,41.36653],[-73.22808,41.36515],[-73.22525,41.36535],[-73.22333,41.36422],[-73.22116,41.364],[-73.21655,41.36565],[-73.21513,41.36666],[-73.21503,41.36731],[-73.21342,41.36791],[-73.21035,41.36791],[-73.20661,41.37017],[-73.20483,41.37047],[-73.20228,41.37206],[-73.20131,41.37394],[-73.20203,41.37518],[-73.20224,41.37791],[-73.20339,41.37825],[-73.20358,41.37916],[-73.19783,41.38281],[-73.19641,41.38511],[-73.19562,41.38786],[-73.19421,41.38878],[-73.19135,41.38892],[-73.19037,41.38825],[-73.18757,41.38892],[-73.18327,41.39171],[-73.18796,41.3973],[-73.18816,41.3982],[-73.18756,41.3996],[-73.18536,41.4022],[-73.18486,41.4063],[-73.18656,41.4086],[-73.19026,41.4103],[-73.19816,41.4119],[-73.19976,41.4132],[-73.20156,41.4158],[-73.20746,41.4204],[-73.21183,41.42277],[-73.21824,41.42907],[-73.22648,41.43031],[-73.22677,41.42982],[-73.22997,41.42912],[-73.23591,41.42615],[-73.23841,41.42625],[-73.24229,41.42984],[-73.24234,41.43607],[-73.24356,41.43856],[-73.24433,41.43956],[-73.24526,41.4399],[-73.25119,41.43777],[-73.25773,41.43356],[-73.2592,41.43333],[-73.26368,41.43453],[-73.26579,41.4368],[-73.26749,41.44358],[-73.27024,41.448],[-73.2737,41.45165],[-73.27825,41.45264],[-73.28074,41.4523],[-73.2878,41.45031],[-73.29126,41.44811],[-73.29395,41.44736],[-73.29776,41.44828],[-73.29951,41.45102],[-73.30079,41.4559],[-73.29986,41.45843],[-73.29983,41.46078],[-73.29831,41.46477],[-73.29826,41.46763],[-73.29959,41.47011],[-73.30276,41.47144],[-73.30503,41.47115],[-73.31047,41.46882],[-73.31278,41.46994],[-73.32091,41.47701],[-73.32267,41.48077],[-73.32711,41.48453],[-73.32684,41.48597],[-73.32478,41.48961],[-73.32679,41.49304],[-73.32551,41.49531],[-73.3213,41.5005],[-73.32052,41.50398],[-73.31889,41.50519],[-73.33031,41.50441],[-73.33299,41.51349],[-73.33644,41.53378],[-73.33867,41.54108],[-73.33925,41.54451],[-73.34129,41.55038],[-73.34307,41.56586],[-73.34862,41.59518],[-73.35622,41.62901],[-73.35908,41.64652],[-73.37041,41.65529],[-73.37786,41.65898],[-73.38051,41.67165],[-73.38212,41.68333],[-73.40131,41.68077],[-73.44629,41.67573],[-73.45666,41.67498],[-73.50186,41.66955],[-73.50407,41.6691],[-73.50692,41.6658],[-73.51038,41.6665],[-73.51602,41.66596],[-73.51808,41.66672],[-73.52002,41.6412],[-73.52104,41.61977],[-73.52599,41.57212],[-73.52769,41.54995],[-73.5325,41.50006],[-73.53633,41.44663],[-73.54147,41.40439],[-73.54343,41.37662],[-73.54909,41.32513],[-73.54988,41.30152],[-73.55096,41.29542],[-73.51295,41.2501],[-73.48269,41.21277],[-73.65167,41.1361],[-73.72777,41.1007],[-73.72338,41.09444],[-73.71868,41.09],[-73.70507,41.07249],[-73.68247,41.0447],[-73.67107,41.03153],[-73.67038,41.03006],[-73.66276,41.02057],[-73.65899,41.01718],[-73.65525,41.01225],[-73.65606,41.00892],[-73.66027,41.00048],[-73.65931,40.99717],[-73.65958,40.99414],[-73.65723,40.99091],[-73.65967,40.98791],[-73.65677,40.98451],[-73.61288,40.95094],[-73.38959,40.99793],[-73.29141,41.01788],[-73.29556,41.0796]]]}}]}